{"type": "FeatureCollection", "features": [ {"type": "Feature", "properties": {"norad_id": 66563, "name": "STARLINK-35437", "group": "last-30-days", "lat": -40.163243747301664, "lon": 84.33333009477539, "alt_km": 400.53551971833986, "timestamp": "2025-12-07T22:37:41.857416+00:00", "meta": {"OBJECT_NAME": "STARLINK-35437", "OBJECT_ID": "2025-268G", "EPOCH": "2025-12-07T06:00:04.999968", "MEAN_MOTION": 15.59236192, "ECCENTRICITY": 0.00017498, "INCLINATION": 42.9999, "RA_OF_ASC_NODE": 153.3471, "ARG_OF_PERICENTER": 266.5056, "MEAN_ANOMALY": 92.7875, "EPHEMERIS_TYPE": 0, "CLASSIFICATION_TYPE": "U", "NORAD_CAT_ID": 66563, "ELEMENT_SET_NO": 999, "REV_AT_EPOCH": 378, "BSTAR": -0.028690181, "MEAN_MOTION_DOT": -0.02027522, "MEAN_MOTION_DDOT": 0}, "tle": {"line1": "1 66563U 25268G   25341.25005787 -.02027522  00000+0 -28690-1 0  9995", "line2": "2 66563  42.9999 153.3471 0001749 266.5056  92.7875 15.59236192  3784"}}, "geometry": {"type": "Point", "coordinates": [84.33333009477539, -40.163243747301664]}}, {"type": "Feature", "properties": {"norad_id": 66564, "name": "STARLINK-35358", "group": "last-30-days", "lat": -39.585324990180425, "lon": 86.7079480574136, "alt_km": 400.4465323548193, "timestamp": "2025-12-07T22:37:41.857431+00:00", "meta": {"OBJECT_NAME": "STARLINK-35358", "OBJECT_ID": "2025-268H", "EPOCH": "2025-12-07T06:00:04.999968", "MEAN_MOTION": 15.59235904, "ECCENTRICITY": 0.00018486, "INCLINATION": 42.9999, "RA_OF_ASC_NODE": 153.3426, "ARG_OF_PERICENTER": 267.4277, "MEAN_ANOMALY": 93.7814, "EPHEMERIS_TYPE": 0, "CLASSIFICATION_TYPE": "U", "NORAD_CAT_ID": 66564, "ELEMENT_SET_NO": 999, "REV_AT_EPOCH": 373, "BSTAR": -0.028674606, "MEAN_MOTION_DOT": -0.02026618, "MEAN_MOTION_DDOT": 0}, "tle": {"line1": "1 66564U 25268H   25341.25005787 -.02026618  00000+0 -28675-1 0  9994", "line2": "2 66564  42.9999 153.3426 0001848 267.4277  93.7814 15.59235904  3739"}}, "geometry": {"type": "Point", "coordinates": [86.7079480574136, -39.585324990180425]}}, {"type": "Feature", "properties": {"norad_id": 66565, "name": "STARLINK-35893", "group": "last-30-days", "lat": -38.95841526507117, "lon": 89.04475930630755, "alt_km": 400.3087707795594, "timestamp": "2025-12-07T22:37:41.857443+00:00", "meta": {"OBJECT_NAME": "STARLINK-35893", "OBJECT_ID": "2025-268J", "EPOCH": "2025-12-07T06:00:04.999968", "MEAN_MOTION": 15.59228524, "ECCENTRICITY": 0.00018367, "INCLINATION": 42.9996, "RA_OF_ASC_NODE": 153.3377, "ARG_OF_PERICENTER": 277.1764, "MEAN_ANOMALY": 85.9481, "EPHEMERIS_TYPE": 0, "CLASSIFICATION_TYPE": "U", "NORAD_CAT_ID": 66565, "ELEMENT_SET_NO": 999, "REV_AT_EPOCH": 378, "BSTAR": -0.028461012, "MEAN_MOTION_DOT": -0.0201291, "MEAN_MOTION_DDOT": 0}, "tle": {"line1": "1 66565U 25268J   25341.25005787 -.02012910  00000+0 -28461-1 0  9998", "line2": "2 66565  42.9996 153.3377 0001836 277.1764  85.9481 15.59228524  3786"}}, "geometry": {"type": "Point", "coordinates": [89.04475930630755, -38.95841526507117]}}, {"type": "Feature", "properties": {"norad_id": 66566, "name": "STARLINK-35871", "group": "last-30-days", "lat": -38.286681803685894, "lon": 91.33628749911506, "alt_km": 400.3992426229015, "timestamp": "2025-12-07T22:37:41.857456+00:00", "meta": {"OBJECT_NAME": "STARLINK-35871", "OBJECT_ID": "2025-268K", "EPOCH": "2025-12-07T06:00:04.999968", "MEAN_MOTION": 15.59232298, "ECCENTRICITY": 0.00017812, "INCLINATION": 42.9997, "RA_OF_ASC_NODE": 153.3324, "ARG_OF_PERICENTER": 271.2961, "MEAN_ANOMALY": 93.7463, "EPHEMERIS_TYPE": 0, "CLASSIFICATION_TYPE": "U", "NORAD_CAT_ID": 66566, "ELEMENT_SET_NO": 999, "REV_AT_EPOCH": 378, "BSTAR": -0.028554886, "MEAN_MOTION_DOT": -0.02018926, "MEAN_MOTION_DDOT": 0}, "tle": {"line1": "1 66566U 25268K   25341.25005787 -.02018926  00000+0 -28555-1 0  9996", "line2": "2 66566  42.9997 153.3324 0001781 271.2961  93.7463 15.59232298  3783"}}, "geometry": {"type": "Point", "coordinates": [91.33628749911506, -38.286681803685894]}}, {"type": "Feature", "properties": {"norad_id": 66567, "name": "STARLINK-35825", "group": "last-30-days", "lat": -37.57178390702971, "lon": 93.58368667414713, "alt_km": 400.47160144702866, "timestamp": "2025-12-07T22:37:41.857466+00:00", "meta": {"OBJECT_NAME": "STARLINK-35825", "OBJECT_ID": "2025-268L", "EPOCH": "2025-12-07T06:00:04.999968", "MEAN_MOTION": 15.59233492, "ECCENTRICITY": 0.0001718, "INCLINATION": 43.0001, "RA_OF_ASC_NODE": 153.3279, "ARG_OF_PERICENTER": 268.7445, "MEAN_ANOMALY": 98.2166, "EPHEMERIS_TYPE": 0, "CLASSIFICATION_TYPE": "U", "NORAD_CAT_ID": 66567, "ELEMENT_SET_NO": 999, "REV_AT_EPOCH": 378, "BSTAR": -0.028602425, "MEAN_MOTION_DOT": -0.02021895, "MEAN_MOTION_DDOT": 0}, "tle": {"line1": "1 66567U 25268L   25341.25005787 -.02021895  00000+0 -28602-1 0  9999", "line2": "2 66567  43.0001 153.3279 0001718 268.7445  98.2166 15.59233492  3786"}}, "geometry": {"type": "Point", "coordinates": [93.58368667414713, -37.57178390702971]}}, {"type": "Feature", "properties": {"norad_id": 66568, "name": "STARLINK-35803", "group": "last-30-days", "lat": -36.81419974769753, "lon": 95.78688704694012, "alt_km": 400.4199848695853, "timestamp": "2025-12-07T22:37:41.857476+00:00", "meta": {"OBJECT_NAME": "STARLINK-35803", "OBJECT_ID": "2025-268M", "EPOCH": "2025-12-07T06:00:04.999968", "MEAN_MOTION": 15.59234179, "ECCENTRICITY": 0.00017968, "INCLINATION": 43, "RA_OF_ASC_NODE": 153.3226, "ARG_OF_PERICENTER": 267.8474, "MEAN_ANOMALY": 101.0289, "EPHEMERIS_TYPE": 0, "CLASSIFICATION_TYPE": "U", "NORAD_CAT_ID": 66568, "ELEMENT_SET_NO": 999, "REV_AT_EPOCH": 378, "BSTAR": -0.028604869, "MEAN_MOTION_DOT": -0.02022154, "MEAN_MOTION_DDOT": 0}, "tle": {"line1": "1 66568U 25268M   25341.25005787 -.02022154  00000+0 -28605-1 0  9992", "line2": "2 66568  43.0000 153.3226 0001796 267.8474 101.0289 15.59234179  3788"}}, "geometry": {"type": "Point", "coordinates": [95.78688704694012, -36.81419974769753]}}, {"type": "Feature", "properties": {"norad_id": 66569, "name": "STARLINK-35835", "group": "last-30-days", "lat": -36.01644082516519, "lon": 97.94632756517404, "alt_km": 400.3940837310647, "timestamp": "2025-12-07T22:37:41.857486+00:00", "meta": {"OBJECT_NAME": "STARLINK-35835", "OBJECT_ID": "2025-268N", "EPOCH": "2025-12-07T06:00:04.999968", "MEAN_MOTION": 15.59235629, "ECCENTRICITY": 0.0001811, "INCLINATION": 42.9998, "RA_OF_ASC_NODE": 153.3178, "ARG_OF_PERICENTER": 267.9775, "MEAN_ANOMALY": 102.8144, "EPHEMERIS_TYPE": 0, "CLASSIFICATION_TYPE": "U", "NORAD_CAT_ID": 66569, "ELEMENT_SET_NO": 999, "REV_AT_EPOCH": 378, "BSTAR": -0.028617633, "MEAN_MOTION_DOT": -0.02023052, "MEAN_MOTION_DDOT": 0}, "tle": {"line1": "1 66569U 25268N   25341.25005787 -.02023052  00000+0 -28618-1 0  9995", "line2": "2 66569  42.9998 153.3178 0001811 267.9775 102.8144 15.59235629  3782"}}, "geometry": {"type": "Point", "coordinates": [97.94632756517404, -36.01644082516519]}}, {"type": "Feature", "properties": {"norad_id": 66570, "name": "STARLINK-35834", "group": "last-30-days", "lat": -35.1837004312626, "lon": 100.05470600975016, "alt_km": 400.37787239738736, "timestamp": "2025-12-07T22:37:41.857496+00:00", "meta": {"OBJECT_NAME": "STARLINK-35834", "OBJECT_ID": "2025-268P", "EPOCH": "2025-12-07T06:00:04.999968", "MEAN_MOTION": 15.59237486, "ECCENTRICITY": 0.00017203, "INCLINATION": 43.0002, "RA_OF_ASC_NODE": 153.3125, "ARG_OF_PERICENTER": 272.2424, "MEAN_ANOMALY": 100.4674, "EPHEMERIS_TYPE": 0, "CLASSIFICATION_TYPE": "U", "NORAD_CAT_ID": 66570, "ELEMENT_SET_NO": 999, "REV_AT_EPOCH": 378, "BSTAR": -0.028681391, "MEAN_MOTION_DOT": -0.02027044, "MEAN_MOTION_DDOT": 0}, "tle": {"line1": "1 66570U 25268P   25341.25005787 -.02027044  00000+0 -28681-1 0  9992", "line2": "2 66570  43.0002 153.3125 0001720 272.2424 100.4674 15.59237486  3788"}}, "geometry": {"type": "Point", "coordinates": [100.05470600975016, -35.1837004312626]}}, {"type": "Feature", "properties": {"norad_id": 66571, "name": "STARLINK-35836", "group": "last-30-days", "lat": -34.31107129839096, "lon": 102.12877372719724, "alt_km": 400.32789210763985, "timestamp": "2025-12-07T22:37:41.857506+00:00", "meta": {"OBJECT_NAME": "STARLINK-35836", "OBJECT_ID": "2025-268Q", "EPOCH": "2025-12-07T06:00:04.999968", "MEAN_MOTION": 15.59234624, "ECCENTRICITY": 0.00017955, "INCLINATION": 43.0004, "RA_OF_ASC_NODE": 153.3081, "ARG_OF_PERICENTER": 270.5977, "MEAN_ANOMALY": 104.0303, "EPHEMERIS_TYPE": 0, "CLASSIFICATION_TYPE": "U", "NORAD_CAT_ID": 66571, "ELEMENT_SET_NO": 999, "REV_AT_EPOCH": 378, "BSTAR": -0.028627528, "MEAN_MOTION_DOT": -0.02023582, "MEAN_MOTION_DDOT": 0}, "tle": {"line1": "1 66571U 25268Q   25341.25005787 -.02023582  00000+0 -28628-1 0  9997", "line2": "2 66571  43.0004 153.3081 0001795 270.5977 104.0303 15.59234624  3788"}}, "geometry": {"type": "Point", "coordinates": [102.12877372719724, -34.31107129839096]}}, {"type": "Feature", "properties": {"norad_id": 66572, "name": "STARLINK-35870", "group": "last-30-days", "lat": -33.4048753988407, "lon": 104.1574620690668, "alt_km": 400.3724251113581, "timestamp": "2025-12-07T22:37:41.857519+00:00", "meta": {"OBJECT_NAME": "STARLINK-35870", "OBJECT_ID": "2025-268R", "EPOCH": "2025-12-07T06:00:04.999968", "MEAN_MOTION": 15.59233769, "ECCENTRICITY": 0.00017443, "INCLINATION": 43.0003, "RA_OF_ASC_NODE": 153.3043, "ARG_OF_PERICENTER": 268.8877, "MEAN_ANOMALY": 107.6589, "EPHEMERIS_TYPE": 0, "CLASSIFICATION_TYPE": "U", "NORAD_CAT_ID": 66572, "ELEMENT_SET_NO": 999, "REV_AT_EPOCH": 378, "BSTAR": -0.028626998, "MEAN_MOTION_DOT": -0.02023451, "MEAN_MOTION_DDOT": 0}, "tle": {"line1": "1 66572U 25268R   25341.25005787 -.02023451  00000+0 -28627-1 0  9992", "line2": "2 66572  43.0003 153.3043 0001744 268.8877 107.6589 15.59233769  3783"}}, "geometry": {"type": "Point", "coordinates": [104.1574620690668, -33.4048753988407]}}]}